KUIPER-00044            
1 64505U 25134F   25274.85233120  .00002951  00000+0  41532-3 0  9993
2 64505  51.8979 228.9743 0014992 106.1376 254.1238 14.79974824 16361
KUIPER-00046            
1 64506U 25134G   25274.10505472  .00010246  00000+0  13880-2 0  9994
2 64506  51.8973 228.6588 0012729 114.9378 245.2908 14.79365895 16306
KUIPER-00047            
1 64507U 25134H   25274.83335647 -.00810410  00000+0 -28562-1 0  9995
2 64507  51.8656 207.5110 0011433 127.7752  30.4437 15.31156734  5815
KUIPER-00048            
1 64508U 25134J   25274.83335647 -.00811338  00000+0 -28448-1 0  9999
2 64508  51.8788 206.1825 0003212 118.5990  56.1471 15.31422973  4349
KUIPER-00049            
1 64509U 25134K   25274.83335647 -.00651102  00000+0 -63981-1 0  9992
2 64509  51.8994 212.0286 0006318  94.2595 124.9422 14.94360786  4023
KUIPER-00050            
1 64510U 25134L   25274.03075590 -.00054342  00000+0 -47915-2 0  9997
2 64510  51.8893 216.8228 0005462 144.7221 215.4110 14.96123457 16462
KUIPER-00051            
1 64511U 25134M   25274.83335647  .00019981  00000+0  15297-2 0  9994
2 64511  51.8906 210.4561 0005319 109.6524  65.9033 15.01846192  5684
KUIPER-00052            
1 64512U 25134N   25274.09468535  .00209272  00000+0  25538-2 0  9999
2 64512  51.8719 200.9437 0007958 125.9564 234.2172 15.59202694 16682
